ONEWEB-0199             
1 48234U 21031AA  24327.23628769 -.00000086  00000+0 -26613-3 0  9995
2 48234  87.9032  43.4261 0001907  97.2173 262.9174 13.14502659173129
ONEWEB-0203             
1 48235U 21031AB  24327.15066648  .00000059  00000+0  12402-3 0  9998
2 48235  87.9034  43.4459 0001835  86.1885 273.9455 13.14500650173121
ONEWEB-0197             
1 48236U 21031AC  24327.27832134  .00000405  00000+0  10583-2 0  9995
2 48236  87.9033  43.4309 0002462 112.2413 247.8978 13.14502364173056
ONEWEB-0194             
1 48237U 21031AD  24327.25691417 -.00000122  00000+0 -36249-3 0  9997
2 48237  87.9019  43.4271 0002333  97.0088 263.1307 13.14501343173226
ONEWEB-0193             
1 48238U 21031AE  24327.27276941  .00000297  00000+0  76664-3 0  9997
2 48238  87.9026  43.4329 0001633  96.1717 263.9599 13.14501419173179
ONEWEB-0191             
1 48239U 21031AF  24326.21821923  .00000249  00000+0  63599-3 0  9997
2 48239  87.9026  43.6223 0001673  98.9823 261.1496 13.14503818172896
ONEWEB-0195             
1 48240U 21031AG  24327.18477485 -.00000065  00000+0 -20983-3 0  9994
2 48240  87.9025  43.4281 0001293 101.5511 258.5764 13.14503052173004
ONEWEB-0201             
1 48241U 21031AH  24327.24976287 -.00000201  00000+0 -57586-3 0  9997
2 48241  87.9035  43.4566 0002185 112.5321 247.6040 13.14502395173245
